[{"OBJECT_NAME":"STARLINK-32586","OBJECT_ID":"2024-210S","EPOCH":"2026-03-09T07:47:05.017632","MEAN_MOTION":15.27591735,"ECCENTRICITY":0.00027237,"INCLINATION":43.0023,"RA_OF_ASC_NODE":181.9245,"ARG_OF_PERICENTER":285.0175,"MEAN_ANOMALY":75.0375,"EPHEMERIS_TYPE":0,"CLASSIFICATION_TYPE":"U","NORAD_CAT_ID":61975,"ELEMENT_SET_NO":999,"REV_AT_EPOCH":7482,"BSTAR":0.0013300912,"MEAN_MOTION_DOT":0.00036536,"MEAN_MOTION_DDOT":0},{"OBJECT_NAME":"FREGAT DEB [TANK]","OBJECT_ID":"2015-074D","EPOCH":"2026-03-09T08:57:03.841632","MEAN_MOTION":13.43333428,"ECCENTRICITY":0.11281977,"INCLINATION":50.2967,"RA_OF_ASC_NODE":115.1399,"ARG_OF_PERICENTER":334.4229,"MEAN_ANOMALY":20.4713,"EPHEMERIS_TYPE":0,"CLASSIFICATION_TYPE":"U","NORAD_CAT_ID":41108,"ELEMENT_SET_NO":999,"REV_AT_EPOCH":43643,"BSTAR":0.0010091226,"MEAN_MOTION_DOT":0.00079957,"MEAN_MOTION_DDOT":6.680944e-6}]
